[{
    "type": "Apartment",
    "rent": 2000,
    "street": "1800 Holloway Ave",
    "city": "San Francisco",
    "zip": 94132,
    "beds": 2,
    "baths": 1,
    "image": "https://images.unsplash.com/photo-1460317442991-0ec209397118?ixlib=rb-1.2.1&ixid=eyJhcHBfaWQiOjEyMDd9&auto=format&fit=crop&w=1650&q=80"
}, {
    "type": "Apartment",
    "rent": 1000,
    "street": "1805 Holloway Ave",
    "city": "San Francisco",
    "zip": 94132,
    "beds": 1,
    "baths": 1,
    "image": "https://images.unsplash.com/photo-1546724953-5d4afbc65730?ixlib=rb-1.2.1&ixid=eyJhcHBfaWQiOjEyMDd9&auto=format&fit=crop&w=1650&q=80"
}, {
    "type": "House",
    "rent": 5000,
    "street": "1600 Holloway Ave",
    "city": "Daly City",
    "zip": 94108,
    "beds": 3,
    "baths": 2,
    "image": "https://images.unsplash.com/photo-1504202302068-15fc2055f7f9?ixlib=rb-1.2.1&ixid=eyJhcHBfaWQiOjEyMDd9&auto=format&fit=crop&w=1630&q=80"
}, {
    "type": "Room",
    "rent": 500,
    "street": "1300 Holloway Ave",
    "city": "Daly City",
    "zip": 94108,
    "beds": 1,
    "baths": 1,
    "image": "https://images.unsplash.com/photo-1512918580421-b2feee3b85a6?ixlib=rb-1.2.1&ixid=eyJhcHBfaWQiOjEyMDd9&auto=format&fit=crop&w=1650&q=80"
}, {
    "type": "House",
    "rent": 5030,
    "street": "1500 Somewhere Ave",
    "city": "Berkeley",
    "zip": 91243,
    "beds": 4,
    "baths": 2,
    "image": "https://images.unsplash.com/photo-1513584684374-8bab748fbf90?ixlib=rb-1.2.1&ixid=eyJhcHBfaWQiOjEyMDd9&auto=format&fit=crop&w=1646&q=80"
}, {
    "type": "House",
    "rent": 6030,
    "street": "150 Here Street",
    "city": "Sausalito",
    "zip": 91223,
    "beds": 4,
    "baths": 5,
    "image": "https://images.unsplash.com/photo-1475855581690-80accde3ae2b?ixlib=rb-1.2.1&ixid=eyJhcHBfaWQiOjEyMDd9&auto=format&fit=crop&w=1650&q=80"
}, {
    "type": "House",
    "rent": 3030,
    "street": "110 There Street",
    "city": "Sausalito",
    "zip": 91223,
    "beds": 2,
    "baths": 2,
    "image": "https://images.unsplash.com/photo-1480074568708-e7b720bb3f09?ixlib=rb-1.2.1&ixid=eyJhcHBfaWQiOjEyMDd9&auto=format&fit=crop&w=1653&q=80"
},{
    "type": "Room",
    "rent": 1500,
    "street": "15 Somwhere Street",
    "city": "San Francisco",
    "zip": 914132,
    "beds": 1,
    "baths": 1,
    "image": "https://images.unsplash.com/photo-1512918728675-ed5a9ecdebfd?ixlib=rb-1.2.1&ixid=eyJhcHBfaWQiOjEyMDd9&auto=format&fit=crop&w=1650&q=80"
}, {
    "type": "Room",
    "rent": 900,
    "street": "56 This Street",
    "city": "San Francisco",
    "zip": 914132,
    "beds": 1,
    "baths": 1,
    "image": "https://images.unsplash.com/photo-1538183744096-546dd974a90e?ixlib=rb-1.2.1&ixid=eyJhcHBfaWQiOjEyMDd9&auto=format&fit=crop&w=1567&q=80"
}
]